NORAD_CAT_ID,OBJECT_NAME,OBJECT_TYPE,EPOCH,MEAN_MOTION,ECCENTRICITY,INCLINATION,RA_OF_ASC_NODE,ARG_OF_PERICENTER,MEAN_ANOMALY,BSTAR,MEAN_MOTION_DOT,MEAN_MOTION_DDOT,TLE_LINE0,TLE_LINE1,TLE_LINE2,SEMIMAJOR_AXIS,PERIOD,APOGEE,PERIGEE,DECAYED
55754.0,STARLINK-5612,PAYLOAD,2024-03-28 12:06:56,14.98352794,0.0003161,70.0017,237.5175,267.3984,92.6813,0.00056184,6.621e-05,0.0,0 STARLINK-5612,1 55754U 23028P   24088.50481781  .00006621  00000-0  56184-3 0  9999,2 55754  70.0017 237.5175 0003161 267.3984  92.6813 14.98352794 59514,6950.122,96.106,574.184,569.79,0.0
55754.0,STARLINK-5612,PAYLOAD,2024-03-28 16:55:20,14.9836021,0.0003192,70.0018,237.0131,268.0952,91.9841,0.00067847,8.018e-05,0.0,0 STARLINK-5612,1 55754U 23028P   24088.70509293  .00008018  00000-0  67847-3 0  9990,2 55754  70.0018 237.0131 0003192 268.0952  91.9841 14.98360210 59547,6950.099,96.105,574.183,569.746,0.0
55754.0,STARLINK-5612,PAYLOAD,2024-03-29 12:08:56,14.98345065,0.0002945,70.0019,234.9937,272.1841,87.898,4.2069e-05,4.09e-06,0.0,0 STARLINK-5612,1 55754U 23028P   24089.50620996  .00000409  00000-0  42069-4 0  9999,2 55754  70.0019 234.9937 0002945 272.1841  87.8980 14.98345065 59668,6950.146,96.106,574.058,569.964,0.0
55754.0,STARLINK-5612,PAYLOAD,2024-03-30 12:10:57,14.98336221,0.0002771,70.0015,232.4704,269.6478,90.4363,-0.00011216,-1.431e-05,0.0,0 STARLINK-5612,1 55754U 23028P   24090.50761325 -.00001431  00000-0 -11216-3 0  9990,2 55754  70.0015 232.4704 0002771 269.6478  90.4363 14.98336221 59819,6950.174,96.107,573.965,570.113,0.0
55754.0,STARLINK-5612,PAYLOAD,2024-03-30 15:23:13,14.98336422,0.0002735,70.0013,232.1332,272.3852,87.6994,-0.0001249,-1.583e-05,0.0,0 STARLINK-5612,1 55754U 23028P   24090.64113216 -.00001583  00000-0 -12490-3 0  9998,2 55754  70.0013 232.1332 0002735 272.3852  87.6994 14.98336422 59831,6950.173,96.107,573.939,570.137,0.0
55754.0,STARLINK-5612,PAYLOAD,2024-03-31 12:12:58,14.98335364,0.0002783,70.001,229.9448,272.6806,87.4035,7.3981e-05,7.9e-06,0.0,0 STARLINK-5612,1 55754U 23028P   24091.50900474  .00000790  00000-0  73981-4 0  9994,2 55754  70.0010 229.9448 0002783 272.6806  87.4035 14.98335364 59967,6950.176,96.107,573.976,570.107,0.0
55754.0,STARLINK-5612,PAYLOAD,2024-03-31 15:25:13,14.98338373,0.0002768,70.001,229.6082,272.6266,87.4576,0.00010686,1.183e-05,0.0,0 STARLINK-5612,1 55754U 23028P   24091.64252159  .00001183  00000-0  10686-3 0  9998,2 55754  70.0010 229.6082 0002768 272.6266  87.4576 14.98338373 59986,6950.167,96.106,573.956,570.108,0.0
55754.0,STARLINK-5612,PAYLOAD,2024-03-31 18:37:30,14.98337246,0.0002817,70.0011,229.2717,272.4288,87.6548,9.0289e-05,9.85e-06,0.0,0 STARLINK-5612,1 55754U 23028P   24091.77604219  .00000985  00000-0  90289-4 0  9997,2 55754  70.0011 229.2717 0002817 272.4288  87.6548 14.98337246 60009,6950.17,96.107,573.993,570.078,0.0
55754.0,STARLINK-5612,PAYLOAD,2024-04-01 02:38:11,14.98323439,0.0002726,70.0015,228.4299,272.6815,87.4032,5.4515e-05,5.57e-06,0.0,0 STARLINK-5612,1 55754U 23028P   24092.10985146  .00000557  00000-0  54515-4 0  9993,2 55754  70.0015 228.4299 0002726 272.6815  87.4032 14.98323439 60056,6950.213,96.107,573.973,570.184,0.0
55754.0,STARLINK-5612,PAYLOAD,2024-04-01 15:27:15,14.9832421,0.0002936,70.0005,227.0818,269.7212,90.361,8.0876e-06,4e-08,0.0,0 STARLINK-5612,1 55754U 23028P   24092.64393378  .00000004  00000-0  80876-5 0  9999,2 55754  70.0005 227.0818 0002936 269.7212  90.3610 14.98324210 60130,6950.211,96.107,574.116,570.035,0.0
55754.0,STARLINK-5612,PAYLOAD,2024-04-02 02:40:12,14.9832928,0.0002975,70.0007,225.9042,269.851,90.2308,2.2595e-05,1.77e-06,0.0,0 STARLINK-5612,1 55754U 23028P   24093.11125149  .00000177  00000-0  22595-4 0  9995,2 55754  70.0007 225.9042 0002975 269.8510  90.2308 14.98329280 60206,6950.195,96.107,574.128,569.992,0.0
55754.0,STARLINK-5612,PAYLOAD,2024-04-02 12:17:00,14.98334444,0.0003002,70.0006,224.8941,269.8881,90.1934,7.5672e-05,8.1e-06,0.0,0 STARLINK-5612,1 55754U 23028P   24093.51180656  .00000810  00000-0  75672-4 0  9991,2 55754  70.0006 224.8941 0003002 269.8881  90.1934 14.98334444 60262,6950.179,96.107,574.131,569.958,0.0
55754.0,STARLINK-5612,PAYLOAD,2024-04-02 18:41:32,14.98338213,0.0002953,70.0008,224.22,268.5629,91.5192,7.0241e-05,7.45e-06,0.0,0 STARLINK-5612,1 55754U 23028P   24093.77884388  .00000745  00000-0  70241-4 0  9996,2 55754  70.0008 224.2200 0002953 268.5629  91.5192 14.98338213 60300,6950.167,96.106,574.085,569.98,0.0
55754.0,STARLINK-5612,PAYLOAD,2024-04-03 10:42:53,14.9832791,0.0002993,70.0007,222.5374,268.2477,91.8339,0.00015666,1.777e-05,0.0,0 STARLINK-5612,1 55754U 23028P   24094.44644817  .00001777  00000-0  15666-3 0  9997,2 55754  70.0007 222.5374 0002993 268.2477  91.8339 14.98327910 60403,6950.199,96.107,574.145,569.984,0.0
55754.0,STARLINK-5612,PAYLOAD,2024-04-03 15:31:17,14.9833257,0.0003061,70.0006,222.0329,268.8806,91.2002,0.00016498,1.876e-05,0.0,0 STARLINK-5612,1 55754U 23028P   24094.64672544  .00001876  00000-0  16498-3 0  9991,2 55754  70.0006 222.0329 0003061 268.8806  91.2002 14.98332570 60438,6950.185,96.107,574.177,569.922,0.0
55754.0,STARLINK-5612,PAYLOAD,2024-04-03 18:43:33,14.98333976,0.0003062,70.0006,221.6963,268.9139,91.1669,0.00017591,2.007e-05,0.0,0 STARLINK-5612,1 55754U 23028P   24094.78024429  .00002007  00000-0  17591-3 0  9991,2 55754  70.0006 221.6963 0003062 268.9139  91.1669 14.98333976 60459,6950.181,96.107,574.174,569.917,0.0
55754.0,STARLINK-5612,PAYLOAD,2024-04-04 10:44:53,14.9833452,0.0002954,70.001,220.0134,270.0866,89.9955,2.5188e-05,2.08e-06,0.0,0 STARLINK-5612,1 55754U 23028P   24095.44784587  .00000208  00000-0  25188-4 0  9996,2 55754  70.0010 220.0134 0002954 270.0866  89.9955 14.98334520 60557,6950.179,96.107,574.097,569.991,0.0
55754.0,STARLINK-5612,PAYLOAD,2024-04-04 13:57:10,14.98315297,0.0003064,70.001,219.6773,266.5163,93.5646,0.00040433,4.733e-05,0.0,0 STARLINK-5612,1 55754U 23028P   24095.58137103  .00004733  00000-0  40433-3 0  9993,2 55754  70.0010 219.6773 0003064 266.5163  93.5646 14.98315297 60573,6950.238,96.108,574.233,569.974,0.0
55754.0,STARLINK-5612,PAYLOAD,2024-04-04 18:45:33,14.98336321,0.0002912,70.0011,219.1725,266.6111,93.4715,4.8114e-05,4.81e-06,0.0,0 STARLINK-5612,1 55754U 23028P   24095.78164259  .00000481  00000-0  48114-4 0  9998,2 55754  70.0011 219.1725 0002912 266.6111  93.4715 14.98336321 60602,6950.173,96.107,574.062,570.014,0.0
55754.0,STARLINK-5612,PAYLOAD,2024-04-05 13:59:10,14.9833341,0.000294,70.0011,217.1527,266.9285,93.1537,3.513e-05,3.26e-06,0.0,0 STARLINK-5612,1 55754U 23028P   24096.58276237  .00000326  00000-0  35130-4 0  9999,2 55754  70.0011 217.1527 0002940 266.9285  93.1537 14.98333410 60724,6950.182,96.107,574.091,570.004,0.0
55754.0,STARLINK-5612,PAYLOAD,2024-04-05 18:47:34,14.98332666,0.0002897,70.0014,216.6479,264.9861,95.0967,5.6767e-05,5.84e-06,0.0,0 STARLINK-5612,1 55754U 23028P   24096.78304188  .00000584  00000-0  56767-4 0  9993,2 55754  70.0014 216.6479 0002897 264.9861  95.0967 14.98332666 60759,6950.185,96.107,574.063,570.036,0.0
55754.0,STARLINK-5612,PAYLOAD,2024-04-06 14:01:11,14.98330209,0.0002884,70.0016,214.628,269.4121,90.6707,3.4656e-05,3.21e-06,0.0,0 STARLINK-5612,1 55754U 23028P   24097.58416346  .00000321  00000-0  34656-4 0  9994,2 55754  70.0016 214.6280 0002884 269.4121  90.6707 14.98330209 60871,6950.192,96.107,574.062,570.053,0.0
55754.0,STARLINK-5612,PAYLOAD,2024-04-07 09:14:48,14.9832457,0.0003047,70.0014,212.6081,268.1821,91.8989,-5.7906e-06,-1.62e-06,0.0,0 STARLINK-5612,1 55754U 23028P   24098.38528898 -.00000162  00000-0 -57906-5 0  9998,2 55754  70.0014 212.6081 0003047 268.1821  91.8989 14.98324570 60993,6950.21,96.107,574.192,569.957,0.0
55754.0,STARLINK-5612,PAYLOAD,2024-04-07 14:03:13,14.98317764,0.0002948,70.0017,212.1029,267.6313,92.4508,8.4095e-05,9.1e-06,0.0,0 STARLINK-5612,1 55754U 23028P   24098.58557199  .00000910  00000-0  84095-4 0  9993,2 55754  70.0017 212.1029 0002948 267.6313  92.4508 14.98317764 61028,6950.231,96.108,574.145,570.047,0.0
55754.0,STARLINK-5612,PAYLOAD,2024-04-08 01:16:08,14.98361894,0.0002921,70.0013,210.9238,264.7889,95.2936,-0.00062299,-7.525e-05,0.0,0 STARLINK-5612,1 55754U 23028P   24099.05287771 -.00007525  00000-0 -62299-3 0  9994,2 55754  70.0013 210.9238 0002921 264.7889  95.2936 14.98361894 61095,6950.094,96.105,573.989,569.929,0.0
55754.0,STARLINK-5612,PAYLOAD,2024-04-08 14:05:13,14.98337874,0.0003069,70.0009,209.5781,270.8605,89.2202,0.00014336,1.618e-05,0.0,0 STARLINK-5612,1 55754U 23028P   24099.58695912  .00001618  00000-0  14336-3 0  9996,2 55754  70.0009 209.5781 0003069 270.8605  89.2202 14.98337874 61174,6950.169,96.106,574.167,569.901,0.0
55754.0,STARLINK-5612,PAYLOAD,2024-04-09 09:18:50,14.98328682,0.0003152,70.001,207.5589,271.041,89.0388,0.0001655,1.882e-05,0.0,0 STARLINK-5612,1 55754U 23028P   24100.38808354  .00001882  00000-0  16550-3 0  9996,2 55754  70.0010 207.5589 0003152 271.0410  89.0388 14.98328682 61293,6950.197,96.107,574.253,569.871,0.0
55754.0,STARLINK-5612,PAYLOAD,2024-04-09 14:07:14,14.98332119,0.0003187,70.0009,207.0538,271.1761,88.9033,0.00014064,1.586e-05,0.0,0 STARLINK-5612,1 55754U 23028P   24100.58836228  .00001586  00000-0  14064-3 0  9998,2 55754  70.0009 207.0538 0003187 271.1761  88.9033 14.98332119 61327,6950.186,96.107,574.266,569.836,0.0
55754.0,STARLINK-5612,PAYLOAD,2024-04-09 17:19:30,14.98334331,0.0003146,70.0007,206.7166,271.2294,88.8505,0.00015832,1.797e-05,0.0,0 STARLINK-5612,1 55754U 23028P   24100.72188028  .00001797  00000-0  15832-3 0  9990,2 55754  70.0007 206.7166 0003146 271.2294  88.8505 14.98334331 61348,6950.179,96.107,574.231,569.858,0.0
55754.0,STARLINK-5612,PAYLOAD,2024-04-10 09:20:51,14.98337961,0.0002916,70.0013,205.0341,270.8694,89.2131,2.609e-06,-6.2e-07,0.0,0 STARLINK-5612,1 55754U 23028P   24101.38947995 -.00000062  00000-0  26090-5 0  9994,2 55754  70.0013 205.0341 0002916 270.8694  89.2131 14.98337961 61448,6950.168,96.106,574.06,570.007,0.0
